IXPE                    
1 49954U 21121A   24278.58334491  .00017197  00000+0  12632-2 0  9998
2 49954   0.2313 300.3490 0009046 110.9479 104.8629 15.00360569  4246
